OBJECT_NAME,OBJECT_ID,EPOCH,MEAN_MOTION,ECCENTRICITY,INCLINATION,RA_OF_ASC_NODE,ARG_OF_PERICENTER,MEAN_ANOMALY,EPHEMERIS_TYPE,CLASSIFICATION_TYPE,NORAD_CAT_ID,ELEMENT_SET_NO,REV_AT_EPOCH,BSTAR,MEAN_MOTION_DOT,MEAN_MOTION_DDOT
STARLINK-31837,2024-183F,2026-02-26T15:47:34.083168,15.30198626,.0001283,53.1585,193.6668,91.3046,268.8102,0,U,61514,999,7796,.4974E-4,.1114E-4,0
STARLINK-32136,2024-183G,2026-02-26T19:27:34.977600,15.30186540,.00028825,53.1606,193.2136,41.9659,318.1562,0,U,61515,999,7798,.24381881E-3,.6865E-4,0
STARLINK-32047,2024-183H,2026-02-26T12:34:54.509664,15.30197034,.0001379,53.1591,194.2521,74.7305,285.3848,0,U,61516,999,7794,-.41986E-5,-.484E-5,0
STARLINK-31756,2024-183J,2026-02-26T08:51:59.871744,15.30223593,.0000499,53.1590,195.3757,75.1832,284.9224,0,U,61517,999,7791,-.23546E-3,-.733E-4,0
STARLINK-32172,2024-183K,2026-02-26T12:30:20.928384,15.30195978,.0001264,53.1580,194.2330,87.9727,272.1419,0,U,61518,999,7794,.35332E-4,.687E-5,0
STARLINK-32338,2024-183L,2026-02-26T18:35:55.162464,15.30194488,.00012942,53.1584,192.9727,89.3406,270.7743,0,U,61519,999,7798,.37475996E-4,.751E-5,0
STARLINK-32306,2024-183M,2026-02-26T15:23:15.943200,15.30176582,.0001154,53.1581,193.5591,86.4665,273.6468,0,U,61520,999,7796,-.68259E-4,-.2379E-4,0
STARLINK-32297,2024-183N,2026-02-26T15:18:41.796000,15.30191877,.0001278,53.1604,193.5409,88.4514,271.6633,0,U,61521,999,7796,-.18653E-5,-.414E-5,0
STARLINK-32260,2024-183P,2026-02-26T08:57:56.019456,15.30183392,.000134,53.1595,194.7328,107.0966,253.0181,0,U,61522,999,7792,-.35761E-4,-.1418E-4,0
STARLINK-32305,2024-183Q,2026-02-26T12:53:08.700000,15.30191218,.0000875,53.1579,194.3321,83.8347,276.2753,0,U,61523,999,7794,-.56093E-5,-.525E-5,0
STARLINK-32296,2024-183R,2026-02-26T08:53:21.936192,15.30192735,.0000999,53.1550,194.7121,79.4395,280.6718,0,U,61524,999,7792,.45256E-4,.981E-5,0
STARLINK-32298,2024-183S,2026-02-26T08:48:46.632096,15.30208645,.0001195,53.1607,194.6918,81.5739,278.5397,0,U,61525,999,7792,.64802E-4,.1561E-4,0
STARLINK-32293,2024-183T,2026-02-26T18:08:43.856160,15.30192391,.00014189,53.1597,193.5649,42.0688,318.0421,0,U,61526,999,7797,.5011892E-5,-.211E-5,0
STARLINK-32313,2024-183U,2026-02-26T17:59:36.722976,15.30193722,.00011877,53.1584,193.5210,97.4730,262.6405,0,U,61527,999,7797,.3378324E-4,.641E-5,0
STARLINK-32319,2024-183V,2026-02-26T08:42:53.687232,15.30191610,.0001271,53.1599,195.3759,90.6160,269.4986,0,U,61528,999,7791,.20083E-4,.236E-5,0
STARLINK-32351,2024-183W,2026-02-26T12:33:59.287968,15.30195515,.0001186,53.1580,191.4281,91.1120,269.0016,0,U,61529,999,7798,.12534E-4,.12E-6,0
STARLINK-32261,2024-183X,2026-02-26T13:02:15.650016,15.30194129,.0001129,53.1597,194.3831,94.7975,265.3155,0,U,61530,999,7794,.17617E-4,.163E-5,0
STARLINK-32358,2024-183Y,2026-02-26T12:37:57.628416,15.30196609,.0001247,53.1587,194.2765,103.1021,257.0119,0,U,61531,999,7794,.65243E-4,.1573E-4,0
STARLINK-11354 [DTC],2024-184A,2026-02-26T15:48:50.965344,15.69717762,.0000616,53.1587,290.7244,98.5381,261.5707,0,U,61532,999,7868,.10469E-4,.681E-5,0
STARLINK-11323 [DTC],2024-184B,2026-02-26T15:34:43.436640,15.69716410,.0000917,53.1578,290.6628,81.8513,278.2609,0,U,61533,999,7868,.101E-4,.636E-5,0
STARLINK-11338 [DTC],2024-184C,2026-02-25T22:53:16.487520,15.69710110,.00016591,53.1598,294.1473,75.8591,284.2611,0,U,61534,999,7857,.4136984E-5,-.88E-6,0
STARLINK-11362 [DTC],2024-184D,2026-02-26T22:59:01.462848,15.69710206,.00008286,53.1582,289.0286,73.5131,286.5978,0,U,61535,999,7873,.4598331E-5,-.31E-6,0
STARLINK-11295 [DTC],2024-184E,2026-02-26T15:27:40.016160,15.69715980,.0001562,53.1603,290.6317,92.0169,268.1028,0,U,61536,999,7868,.12366E-4,.909E-5,0
STARLINK-11331 [DTC],2024-184F,2026-02-27T04:41:52.298016,15.74783852,.00017173,53.1554,287.6578,238.3067,121.7786,0,U,61537,999,7877,.14636121E-2,.225283E-2,0
STARLINK-11325 [DTC],2024-184G,2026-02-27T01:48:14.898816,15.69785026,.00031483,53.1611,288.3348,159.2244,200.8903,0,U,61538,999,7875,-.11725122E-3,-.1482E-3,0
STARLINK-11332 [DTC],2024-184H,2026-02-27T01:41:11.754816,15.69716551,.00007167,53.1571,288.3227,100.0704,260.0395,0,U,61539,999,7875,.1413854E-4,.1126E-4,0
STARLINK-11350 [DTC],2024-184J,2026-02-26T22:30:47.044800,15.69700302,.00013902,53.1586,288.8983,64.6039,295.5122,0,U,61540,999,7873,-.6846564E-5,-.1418E-4,0
STARLINK-11357 [DTC],2024-184K,2026-02-26T23:55:29.481600,15.69712230,.00057992,53.1576,289.2851,262.2406,97.7954,0,U,61541,999,7873,.848771E-6,-.493E-5,0
STARLINK-11322 [DTC],2024-184L,2026-02-27T01:20:09.082752,15.69714664,.00004535,53.1631,288.9396,36.9254,323.1795,0,U,61542,999,7980,.13853204E-4,.1091E-4,0
STARLINK-11364 [DTC],2024-184M,2026-02-27T01:13:05.388384,15.69711339,.00008228,53.1592,288.9062,38.5252,321.5824,0,U,61543,999,7874,.6629368E-5,.215E-5,0
