STARLINK-31837          
1 61514U 24183F   26057.65803337  .00001114  00000+0  49740-4 0  9994
2 61514  53.1585 193.6668 0001283  91.3046 268.8102 15.30198626 77969
STARLINK-32136          
1 61515U 24183G   26057.81082150  .00006865  00000+0  24382-3 0  9997
2 61515  53.1606 193.2136 0002882  41.9659 318.1562 15.30186540 77980
STARLINK-32047          
1 61516U 24183H   26057.52424201 -.00000484  00000+0 -41986-5 0  9997
2 61516  53.1591 194.2521 0001379  74.7305 285.3848 15.30197034 77943
STARLINK-31756          
1 61517U 24183J   26057.36944296 -.00007330  00000+0 -23546-3 0  9998
2 61517  53.1590 195.3757 0000499  75.1832 284.9224 15.30223593 77918
STARLINK-32172          
1 61518U 24183K   26057.52107556  .00000687  00000+0  35332-4 0  9990
2 61518  53.1580 194.2330 0001264  87.9727 272.1419 15.30195978 77941
STARLINK-32338          
1 61519U 24183L   26057.77494401  .00000751  00000+0  37476-4 0  9999
2 61519  53.1584 192.9727 0001294  89.3406 270.7743 15.30194488 77987
STARLINK-32306          
1 61520U 24183M   26057.64115675 -.00002379  00000+0 -68259-4 0  9993
2 61520  53.1581 193.5591 0001154  86.4665 273.6468 15.30176582 77961
STARLINK-32297          
1 61521U 24183N   26057.63798375 -.00000414  00000+0 -18653-5 0  9999
2 61521  53.1604 193.5409 0001278  88.4514 271.6633 15.30191877 77964
STARLINK-32260          
1 61522U 24183P   26057.37356504 -.00001418  00000+0 -35761-4 0  9998
2 61522  53.1595 194.7328 0001340 107.0966 253.0181 15.30183392 77927
STARLINK-32305          
1 61523U 24183Q   26057.53690625 -.00000525  00000+0 -56093-5 0  9992
2 61523  53.1579 194.3321 0000875  83.8347 276.2753 15.30191218 77945
STARLINK-32296          
1 61524U 24183R   26057.37039278  .00000981  00000+0  45256-4 0  9998
2 61524  53.1550 194.7121 0000999  79.4395 280.6718 15.30192735 77921
STARLINK-32298          
1 61525U 24183S   26057.36720639  .00001561  00000+0  64802-4 0  9999
2 61525  53.1607 194.6918 0001195  81.5739 278.5397 15.30208645 77920
STARLINK-32293          
1 61526U 24183T   26057.75606315 -.00000211  00000+0  50119-5 0  9996
2 61526  53.1597 193.5649 0001418  42.0688 318.0421 15.30192391 77974
STARLINK-32313          
1 61527U 24183U   26057.74973059  .00000641  00000+0  33783-4 0  9991
2 61527  53.1584 193.5210 0001187  97.4730 262.6405 15.30193722 77975
STARLINK-32319          
1 61528U 24183V   26057.36312138  .00000236  00000+0  20083-4 0  9994
2 61528  53.1599 195.3759 0001271  90.6160 269.4986 15.30191610 77913
STARLINK-32351          
1 61529U 24183W   26057.52360287  .00000012  00000+0  12534-4 0  9995
2 61529  53.1580 191.4281 0001186  91.1120 269.0016 15.30195515 77983
STARLINK-32261          
1 61530U 24183X   26057.54323669  .00000163  00000+0  17617-4 0  9996
2 61530  53.1597 194.3831 0001129  94.7975 265.3155 15.30194129 77949
STARLINK-32358          
1 61531U 24183Y   26057.52636144  .00001573  00000+0  65243-4 0  9994
2 61531  53.1587 194.2765 0001247 103.1021 257.0119 15.30196609 77945
STARLINK-11354 [DTC]    
1 61532U 24184A   26057.65892321  .00000681  00000+0  10469-4 0  9990
2 61532  53.1587 290.7244 0000616  98.5381 261.5707 15.69717762 78681
STARLINK-11323 [DTC]    
1 61533U 24184B   26057.64911385  .00000636  00000+0  10100-4 0  9994
2 61533  53.1578 290.6628 0000917  81.8513 278.2609 15.69716410 78688
STARLINK-11338 [DTC]    
1 61534U 24184C   26056.95366305 -.00000088  00000+0  41370-5 0  9990
2 61534  53.1598 294.1473 0001659  75.8591 284.2611 15.69710110 78570
STARLINK-11362 [DTC]    
1 61535U 24184D   26057.95765582 -.00000031  00000+0  45983-5 0  9994
2 61535  53.1582 289.0286 0000828  73.5131 286.5978 15.69710206 78736
STARLINK-11295 [DTC]    
1 61536U 24184E   26057.64421315  .00000909  00000+0  12366-4 0  9995
2 61536  53.1603 290.6317 0001562  92.0169 268.1028 15.69715980 78687
STARLINK-11331 [DTC]    
1 61537U 24184F   26058.19574419  .00225283  00000+0  14636-2 0  9995
2 61537  53.1554 287.6578 0001717 238.3067 121.7786 15.74783852 78776
STARLINK-11325 [DTC]    
1 61538U 24184G   26058.07517244 -.00014820  00000+0 -11725-3 0  9998
2 61538  53.1611 288.3348 0003148 159.2244 200.8903 15.69785026 78759
STARLINK-11332 [DTC]    
1 61539U 24184H   26058.07027494  .00001126  00000+0  14139-4 0  9998
2 61539  53.1571 288.3227 0000716 100.0704 260.0395 15.69716551 78754
STARLINK-11350 [DTC]    
1 61540U 24184J   26057.93804450 -.00001418  00000+0 -68466-5 0  9998
2 61540  53.1586 288.8983 0001390  64.6039 295.5122 15.69700302 78737
STARLINK-11357 [DTC]    
1 61541U 24184K   26057.99686900 -.00000493  00000+0  84877-6 0  9999
2 61541  53.1576 289.2851 0005799 262.2406  97.7954 15.69712230 78735
STARLINK-11322 [DTC]    
1 61542U 24184L   26058.05566068  .00001091  00000+0  13853-4 0  9998
2 61542  53.1631 288.9396 0000453  36.9254 323.1795 15.69714664 79808
STARLINK-11364 [DTC]    
1 61543U 24184M   26058.05075681  .00000215  00000+0  66294-5 0  9990
2 61543  53.1592 288.9062 0000822  38.5252 321.5824 15.69711339 78744
